{"type": "FeatureCollection", "features": [ {"type": "Feature", "properties": {"norad_id": 66908, "name": "1998-067XU", "group": "last-30-days", "lat": -42.74525194018507, "lon": 55.74428908175684, "alt_km": 411.479881595008, "timestamp": "2025-12-20T16:47:35.025275+00:00", "meta": {"OBJECT_NAME": "1998-067XU", "OBJECT_ID": "1998-067XU", "EPOCH": "2025-12-20T07:46:52.178592", "MEAN_MOTION": 15.52443245, "ECCENTRICITY": 0.0003897, "INCLINATION": 51.6312, "RA_OF_ASC_NODE": 104.6877, "ARG_OF_PERICENTER": 270.3762, "MEAN_ANOMALY": 89.6781, "EPHEMERIS_TYPE": 0, "CLASSIFICATION_TYPE": "U", "NORAD_CAT_ID": 66908, "ELEMENT_SET_NO": 999, "REV_AT_EPOCH": 279, "BSTAR": 0.00082115, "MEAN_MOTION_DOT": 0.00051005, "MEAN_MOTION_DDOT": 0}, "tle": {"line1": "1 66908U 98067XU  25354.32421503  .00051005  00000+0  82115-3 0  9998", "line2": "2 66908  51.6312 104.6877 0003897 270.3762  89.6781 15.52443245  2798"}}, "geometry": {"type": "Point", "coordinates": [55.74428908175684, -42.74525194018507]}}, {"type": "Feature", "properties": {"norad_id": 66909, "name": "SILVERSAT", "group": "last-30-days", "lat": -39.45909735407023, "lon": 62.10010154185966, "alt_km": 411.0500702458221, "timestamp": "2025-12-20T16:47:35.025287+00:00", "meta": {"OBJECT_NAME": "SILVERSAT", "OBJECT_ID": "1998-067XV", "EPOCH": "2025-12-19T13:13:09.424128", "MEAN_MOTION": 15.5251652, "ECCENTRICITY": 0.0003839, "INCLINATION": 51.6306, "RA_OF_ASC_NODE": 108.5226, "ARG_OF_PERICENTER": 268.696, "MEAN_ANOMALY": 91.359, "EPHEMERIS_TYPE": 0, "CLASSIFICATION_TYPE": "U", "NORAD_CAT_ID": 66909, "ELEMENT_SET_NO": 999, "REV_AT_EPOCH": 267, "BSTAR": 0.00079912, "MEAN_MOTION_DOT": 0.00049748, "MEAN_MOTION_DDOT": 0}, "tle": {"line1": "1 66909U 98067XV  25353.55080352  .00049748  00000+0  79912-3 0  9998", "line2": "2 66909  51.6306 108.5226 0003839 268.6960  91.3590 15.52516520  2671"}}, "geometry": {"type": "Point", "coordinates": [62.10010154185966, -39.45909735407023]}}, {"type": "Feature", "properties": {"norad_id": 66910, "name": "1998-067XW", "group": "last-30-days", "lat": -33.09311623852657, "lon": 71.69889518046209, "alt_km": 411.72350793283385, "timestamp": "2025-12-20T16:47:35.025297+00:00", "meta": {"OBJECT_NAME": "1998-067XW", "OBJECT_ID": "1998-067XW", "EPOCH": "2025-12-20T10:48:13.120704", "MEAN_MOTION": 15.52613612, "ECCENTRICITY": 0.0004276, "INCLINATION": 51.6311, "RA_OF_ASC_NODE": 104.0281, "ARG_OF_PERICENTER": 248.7009, "MEAN_ANOMALY": 111.3524, "EPHEMERIS_TYPE": 0, "CLASSIFICATION_TYPE": "U", "NORAD_CAT_ID": 66910, "ELEMENT_SET_NO": 999, "REV_AT_EPOCH": 281, "BSTAR": 0.00071418, "MEAN_MOTION_DOT": 0.0004454, "MEAN_MOTION_DDOT": 0}, "tle": {"line1": "1 66910U 98067XW  25354.45015186  .00044540  00000+0  71418-3 0  9991", "line2": "2 66910  51.6311 104.0281 0004276 248.7009 111.3524 15.52613612  2816"}}, "geometry": {"type": "Point", "coordinates": [71.69889518046209, -33.09311623852657]}}, {"type": "Feature", "properties": {"norad_id": 66911, "name": "1998-067XX", "group": "last-30-days", "lat": -23.181424686323588, "lon": 82.92295987447952, "alt_km": 410.1783012132246, "timestamp": "2025-12-20T16:47:35.025310+00:00", "meta": {"OBJECT_NAME": "1998-067XX", "OBJECT_ID": "1998-067XX", "EPOCH": "2025-12-19T19:18:04.960512", "MEAN_MOTION": 15.52964022, "ECCENTRICITY": 0.00039341, "INCLINATION": 51.6304, "RA_OF_ASC_NODE": 107.215, "ARG_OF_PERICENTER": 254.2011, "MEAN_ANOMALY": 105.8545, "EPHEMERIS_TYPE": 0, "CLASSIFICATION_TYPE": "U", "NORAD_CAT_ID": 66911, "ELEMENT_SET_NO": 999, "REV_AT_EPOCH": 270, "BSTAR": 0.00082358587, "MEAN_MOTION_DOT": 0.00052143, "MEAN_MOTION_DDOT": 0}, "tle": {"line1": "1 66911U 98067XX  25353.80422408  .00052143  00000+0  82359-3 0  9993", "line2": "2 66911  51.6304 107.2150 0003934 254.2011 105.8545 15.52964022  2707"}}, "geometry": {"type": "Point", "coordinates": [82.92295987447952, -23.181424686323588]}}, {"type": "Feature", "properties": {"norad_id": 66912, "name": "1998-067XY", "group": "last-30-days", "lat": -50.892536295076276, "lon": 25.790958529205266, "alt_km": 413.23140578663333, "timestamp": "2025-12-20T16:47:35.025320+00:00", "meta": {"OBJECT_NAME": "1998-067XY", "OBJECT_ID": "1998-067XY", "EPOCH": "2025-12-19T14:52:14.043072", "MEAN_MOTION": 15.51780846, "ECCENTRICITY": 0.0004012, "INCLINATION": 51.6307, "RA_OF_ASC_NODE": 108.231, "ARG_OF_PERICENTER": 260.881, "MEAN_ANOMALY": 99.1725, "EPHEMERIS_TYPE": 0, "CLASSIFICATION_TYPE": "U", "NORAD_CAT_ID": 66912, "ELEMENT_SET_NO": 999, "REV_AT_EPOCH": 267, "BSTAR": 0.00063264, "MEAN_MOTION_DOT": 0.00038197, "MEAN_MOTION_DDOT": 0}, "tle": {"line1": "1 66912U 98067XY  25353.61960698  .00038197  00000+0  63264-3 0  9998", "line2": "2 66912  51.6307 108.2310 0004012 260.8810  99.1725 15.51780846  2678"}}, "geometry": {"type": "Point", "coordinates": [25.790958529205266, -50.892536295076276]}}, {"type": "Feature", "properties": {"norad_id": 66913, "name": "2025-284A", "group": "last-30-days", "lat": -45.94215125613526, "lon": 109.63186017777839, "alt_km": 536.7041068423878, "timestamp": "2025-12-20T16:47:35.025330+00:00", "meta": {"OBJECT_NAME": "2025-284A", "OBJECT_ID": "2025-284A", "EPOCH": "2025-12-18T06:24:29.359008", "MEAN_MOTION": 15.16462178, "ECCENTRICITY": 0.00203688, "INCLINATION": 80.4052, "RA_OF_ASC_NODE": 122.7714, "ARG_OF_PERICENTER": 156.4299, "MEAN_ANOMALY": 203.7866, "EPHEMERIS_TYPE": 0, "CLASSIFICATION_TYPE": "U", "NORAD_CAT_ID": 66913, "ELEMENT_SET_NO": 999, "REV_AT_EPOCH": 196, "BSTAR": 0.00046237905, "MEAN_MOTION_DOT": 9.066e-05, "MEAN_MOTION_DDOT": 0}, "tle": {"line1": "1 66913U 25284A   25352.26700647  .00009066  00000+0  46238-3 0  9991", "line2": "2 66913  80.4052 122.7714 0020368 156.4299 203.7866 15.16462178  1964"}}, "geometry": {"type": "Point", "coordinates": [109.63186017777839, -45.94215125613526]}}, {"type": "Feature", "properties": {"norad_id": 66914, "name": "2025-284B", "group": "last-30-days", "lat": 4.193449607485987, "lon": 120.38670574161443, "alt_km": 515.6922128413034, "timestamp": "2025-12-20T16:47:35.025340+00:00", "meta": {"OBJECT_NAME": "2025-284B", "OBJECT_ID": "2025-284B", "EPOCH": "2025-12-16T06:51:11.417184", "MEAN_MOTION": 15.18985981, "ECCENTRICITY": 0.00081793, "INCLINATION": 80.4045, "RA_OF_ASC_NODE": 125.2713, "ARG_OF_PERICENTER": 234.9626, "MEAN_ANOMALY": 125.0834, "EPHEMERIS_TYPE": 0, "CLASSIFICATION_TYPE": "U", "NORAD_CAT_ID": 66914, "ELEMENT_SET_NO": 999, "REV_AT_EPOCH": 166, "BSTAR": 0.00038444995, "MEAN_MOTION_DOT": 8.068e-05, "MEAN_MOTION_DDOT": 0}, "tle": {"line1": "1 66914U 25284B   25350.28554881  .00008068  00000+0  38445-3 0  9991", "line2": "2 66914  80.4045 125.2713 0008179 234.9626 125.0834 15.18985981  1668"}}, "geometry": {"type": "Point", "coordinates": [120.38670574161443, 4.193449607485987]}}, {"type": "Feature", "properties": {"norad_id": 66915, "name": "HULIANWANG DIGUI-105", "group": "last-30-days", "lat": 41.943566037139654, "lon": -144.11216801201175, "alt_km": 880.8681604167441, "timestamp": "2025-12-20T16:47:35.025350+00:00", "meta": {"OBJECT_NAME": "HULIANWANG DIGUI-105", "OBJECT_ID": "2025-285A", "EPOCH": "2025-12-20T12:48:37.247616", "MEAN_MOTION": 14.03717889, "ECCENTRICITY": 0.000804, "INCLINATION": 50.0049, "RA_OF_ASC_NODE": 85.5346, "ARG_OF_PERICENTER": 308.7207, "MEAN_ANOMALY": 51.2978, "EPHEMERIS_TYPE": 0, "CLASSIFICATION_TYPE": "U", "NORAD_CAT_ID": 66915, "ELEMENT_SET_NO": 999, "REV_AT_EPOCH": 200, "BSTAR": 9.8955e-05, "MEAN_MOTION_DOT": 5e-08, "MEAN_MOTION_DDOT": 0}, "tle": {"line1": "1 66915U 25285A   25354.53376444  .00000005  00000+0  98955-4 0  9998", "line2": "2 66915  50.0049  85.5346 0008040 308.7207  51.2978 14.03717889  2009"}}, "geometry": {"type": "Point", "coordinates": [-144.11216801201175, 41.943566037139654]}}, {"type": "Feature", "properties": {"norad_id": 66916, "name": "HULIANWANG DIGUI-106", "group": "last-30-days", "lat": 33.50829510132475, "lon": -128.93228352558629, "alt_km": 881.3300894742242, "timestamp": "2025-12-20T16:47:35.025363+00:00", "meta": {"OBJECT_NAME": "HULIANWANG DIGUI-106", "OBJECT_ID": "2025-285B", "EPOCH": "2025-12-20T12:44:26.571840", "MEAN_MOTION": 14.03702781, "ECCENTRICITY": 0.0006822, "INCLINATION": 50.006, "RA_OF_ASC_NODE": 85.5208, "ARG_OF_PERICENTER": 301.9135, "MEAN_ANOMALY": 58.1106, "EPHEMERIS_TYPE": 0, "CLASSIFICATION_TYPE": "U", "NORAD_CAT_ID": 66916, "ELEMENT_SET_NO": 999, "REV_AT_EPOCH": 200, "BSTAR": 9.2301e-05, "MEAN_MOTION_DOT": -5e-08, "MEAN_MOTION_DDOT": 0}, "tle": {"line1": "1 66916U 25285B   25354.53086310 -.00000005  00000+0  92301-4 0  9999", "line2": "2 66916  50.0060  85.5208 0006822 301.9135  58.1106 14.03702781  2005"}}, "geometry": {"type": "Point", "coordinates": [-128.93228352558629, 33.50829510132475]}}, {"type": "Feature", "properties": {"norad_id": 66917, "name": "HULIANWANG DIGUI-107", "group": "last-30-days", "lat": 27.283462822993815, "lon": -120.8500392640243, "alt_km": 882.9267112656853, "timestamp": "2025-12-20T16:47:35.025373+00:00", "meta": {"OBJECT_NAME": "HULIANWANG DIGUI-107", "OBJECT_ID": "2025-285C", "EPOCH": "2025-12-20T12:41:46.495104", "MEAN_MOTION": 14.03662823, "ECCENTRICITY": 0.000748, "INCLINATION": 50.0025, "RA_OF_ASC_NODE": 85.5045, "ARG_OF_PERICENTER": 311.4565, "MEAN_ANOMALY": 48.5696, "EPHEMERIS_TYPE": 0, "CLASSIFICATION_TYPE": "U", "NORAD_CAT_ID": 66917, "ELEMENT_SET_NO": 999, "REV_AT_EPOCH": 200, "BSTAR": 9.1885e-05, "MEAN_MOTION_DOT": -6e-08, "MEAN_MOTION_DDOT": 0}, "tle": {"line1": "1 66917U 25285C   25354.52901036 -.00000006  00000+0  91885-4 0  9997", "line2": "2 66917  50.0025  85.5045 0007480 311.4565  48.5696 14.03662823  2009"}}, "geometry": {"type": "Point", "coordinates": [-120.8500392640243, 27.283462822993815]}}]}